[{"OBJECT_NAME":"STARLINK-30466","OBJECT_ID":"2023-146P","EPOCH":"2026-03-09T22:00:01.999584","MEAN_MOTION":15.06656743,"ECCENTRICITY":0.00023085,"INCLINATION":43.0004,"RA_OF_ASC_NODE":311.9092,"ARG_OF_PERICENTER":267.3679,"MEAN_ANOMALY":62.4608,"EPHEMERIS_TYPE":0,"CLASSIFICATION_TYPE":"U","NORAD_CAT_ID":57904,"ELEMENT_SET_NO":999,"REV_AT_EPOCH":572,"BSTAR":0.10518613,"MEAN_MOTION_DOT":0.01742724,"MEAN_MOTION_DDOT":0},{"OBJECT_NAME":"KUIPER-00153","OBJECT_ID":"2025-217M","EPOCH":"2026-03-09T22:00:01.999584","MEAN_MOTION":15.08685712,"ECCENTRICITY":0.00100607,"INCLINATION":51.8801,"RA_OF_ASC_NODE":26.4916,"ARG_OF_PERICENTER":321.9781,"MEAN_ANOMALY":312.405,"EPHEMERIS_TYPE":0,"CLASSIFICATION_TYPE":"U","NORAD_CAT_ID":65773,"ELEMENT_SET_NO":999,"REV_AT_EPOCH":517,"BSTAR":-0.00046487713,"MEAN_MOTION_DOT":-7.667e-5,"MEAN_MOTION_DDOT":0}]
